{
  "status": "success",
  "hasErrors": false,
  "message": "",
  "length": 155,
  "payload": [
    {
      "_index": "tle",
      "_type": "_doc",
      "_id": "o-B5tXYBwxzt-Zlw65WH",
      "_score": 9.150519,
      "_source": {
        "right_ascension": "51.2040",
        "anomaly": "80.4564",
        "calc_anomaly": 80.4564,
        "satellite_number": 10976,
        "calc_mean_motion": 2.22212551,
        "ephemeris": "0",
        "set_number": "221",
        "calc_ballistic_coefficient": -0.00000129,
        "epoch": "04137.50694396",
        "international_designator": "78068B",
        "calc_inclination": 21.9933,
        "perigee": "207.8164",
        "revolution_number": "20995",
        "line_number": 107277,
        "calc_perigee": 207.8164,
        "drag": "19086-2",
        "text": "1 10976U 78068B   04137.50694396 -.00000129  00000-0  19086-2 0  2216\n2 10976  21.9933  51.2040 7185187 207.8164  80.4564  2.22212551209953",
        "calc_drag": 0.0019086,
        "timestamp": "2004-05-16 12:09:59",
        "inclination": "21.9933",
        "eccentricity": "7185187",
        "classification": "U",
        "calc_right_ascension": 51.204,
        "calc_mean_motion_2": 0,
        "ballistic_coefficient": "-.00000129",
        "filename": "tle2004_1of8.txt",
        "calc_eccentricity": 0.7185187,
        "mean_motion": "2.22212551",
        "mean_motion_2": "00000-0"
      }
    },
    {
      "_index": "tle",
      "_type": "_doc",
      "_id": "AFJ-tXYBAz3ao6c91zK5",
      "_score": 9.150519,
      "_source": {
        "right_ascension": "351.2515",
        "anomaly": "355.8297",
        "calc_anomaly": 355.8297,
        "satellite_number": 10976,
        "calc_mean_motion": 2.22158541,
        "ephemeris": "0",
        "set_number": "073",
        "calc_ballistic_coefficient": -5.3e-7,
        "epoch": "02001.06786317",
        "international_designator": "78068B",
        "calc_inclination": 21.9469,
        "perigee": "035.1021",
        "revolution_number": "1906",
        "line_number": 30997,
        "calc_perigee": 35.1021,
        "drag": "+10000-3",
        "text": "1 10976U 78068B   02001.06786317 -.00000053  00000-0  10000-3 0   739\n2 10976  21.9469 351.2515 7166972  35.1021 355.8297  2.22158541 19063",
        "calc_drag": 0.0001,
        "timestamp": "2002-01-01 01:37:43",
        "inclination": "021.9469",
        "eccentricity": "7166972",
        "classification": "U",
        "calc_right_ascension": 351.2515,
        "calc_mean_motion_2": 0,
        "ballistic_coefficient": "-.00000053",
        "filename": "tle2004_2of8.txt",
        "calc_eccentricity": 0.7166972,
        "mean_motion": "02.22158541",
        "mean_motion_2": "+00000-0"
      }
    },
    {
      "_index": "tle",
      "_type": "_doc",
      "_id": "f-GAtXYBwxzt-ZlwDtSM",
      "_score": 9.150519,
      "_source": {
        "right_ascension": "347.1342",
        "anomaly": "354.7512",
        "calc_anomaly": 354.7512,
        "satellite_number": 10976,
        "calc_mean_motion": 2.22160446,
        "ephemeris": "0",
        "set_number": "074",
        "calc_ballistic_coefficient": -7.4e-7,
        "epoch": "02013.22006177",
        "international_designator": "78068B",
        "calc_inclination": 21.9322,
        "perigee": "042.4366",
        "revolution_number": "1909",
        "line_number": 196205,
        "calc_perigee": 42.4366,
        "drag": "+10000-3",
        "text": "1 10976U 78068B   02013.22006177 -.00000074  00000-0  10000-3 0   743\n2 10976  21.9322 347.1342 7166657  42.4366 354.7512  2.22160446 19094",
        "calc_drag": 0.0001,
        "timestamp": "2002-01-13 05:16:53",
        "inclination": "021.9322",
        "eccentricity": "7166657",
        "classification": "U",
        "calc_right_ascension": 347.1342,
        "calc_mean_motion_2": 0,
        "ballistic_coefficient": "-.00000074",
        "filename": "tle2004_2of8.txt",
        "calc_eccentricity": 0.7166657,
        "mean_motion": "02.22160446",
        "mean_motion_2": "+00000-0"
      }
    },
    {
      "_index": "tle",
      "_type": "_doc",
      "_id": "KVKAtXYBAz3ao6c9w7lY",
      "_score": 9.150519,
      "_source": {
        "right_ascension": "347.4506",
        "anomaly": "354.8478",
        "calc_anomaly": 354.8478,
        "satellite_number": 10976,
        "calc_mean_motion": 2.22159811,
        "ephemeris": "0",
        "set_number": "074",
        "calc_ballistic_coefficient": -5.3e-7,
        "epoch": "02012.31993279",
        "international_designator": "78068B",
        "calc_inclination": 21.9311,
        "perigee": "041.8853",
        "revolution_number": "1909",
        "line_number": 182367,
        "calc_perigee": 41.8853,
        "drag": "+10000-3",
        "text": "1 10976U 78068B   02012.31993279 -.00000053  00000-0  10000-3 0   747\n2 10976  21.9311 347.4506 7166762  41.8853 354.8478  2.22159811 19094",
        "calc_drag": 0.0001,
        "timestamp": "2002-01-12 07:40:42",
        "inclination": "021.9311",
        "eccentricity": "7166762",
        "classification": "U",
        "calc_right_ascension": 347.4506,
        "calc_mean_motion_2": 0,
        "ballistic_coefficient": "-.00000053",
        "filename": "tle2004_2of8.txt",
        "calc_eccentricity": 0.7166762,
        "mean_motion": "02.22159811",
        "mean_motion_2": "+00000-0"
      }
    },
    {
      "_index": "tle",
      "_type": "_doc",
      "_id": "YeKBtXYBwxzt-ZlwJiOl",
      "_score": 9.150519,
      "_source": {
        "right_ascension": "348.2166",
        "anomaly": "355.0614",
        "calc_anomaly": 355.0614,
        "satellite_number": 10976,
        "calc_mean_motion": 2.2215866,
        "ephemeris": "0",
        "set_number": "074",
        "calc_ballistic_coefficient": -1.2e-7,
        "epoch": "02010.06955075",
        "international_designator": "78068B",
        "calc_inclination": 21.9324,
        "perigee": "040.5150",
        "revolution_number": "1908",
        "line_number": 154665,
        "calc_perigee": 40.515,
        "drag": "+10000-3",
        "text": "1 10976U 78068B   02010.06955075 -.00000012  00000-0  10000-3 0   744\n2 10976  21.9324 348.2166 7167085  40.5150 355.0614  2.22158660 19089",
        "calc_drag": 0.0001,
        "timestamp": "2002-01-10 01:40:09",
        "inclination": "021.9324",
        "eccentricity": "7167085",
        "classification": "U",
        "calc_right_ascension": 348.2166,
        "calc_mean_motion_2": 0,
        "ballistic_coefficient": "-.00000012",
        "filename": "tle2004_2of8.txt",
        "calc_eccentricity": 0.7167085,
        "mean_motion": "02.22158660",
        "mean_motion_2": "+00000-0"
      }
    },
    {
      "_index": "tle",
      "_type": "_doc",
      "_id": "cFWLtXYBAz3ao6c9LS40",
      "_score": 9.150519,
      "_source": {
        "right_ascension": "096.4830",
        "anomaly": "321.6185",
        "calc_anomaly": 321.6185,
        "satellite_number": 10976,
        "calc_mean_motion": 2.22218699,
        "ephemeris": "0",
        "set_number": "013",
        "calc_ballistic_coefficient": 0.00000142,
        "epoch": "04005.50269399",
        "international_designator": "78068B",
        "calc_inclination": 21.4106,
        "perigee": "127.3308",
        "revolution_number": "2070",
        "line_number": 82209,
        "calc_perigee": 127.3308,
        "drag": "+19086-2",
        "text": "1 10976U 78068B   04005.50269399 +.00000142  00000-0  19086-2 0   134\n2 10976  21.4106  96.4830 7180601 127.3308 321.6185  2.22218699 20702",
        "calc_drag": 0.0019086,
        "timestamp": "2004-01-05 12:03:52",
        "inclination": "021.4106",
        "eccentricity": "7180601",
        "classification": "U",
        "calc_right_ascension": 96.483,
        "calc_mean_motion_2": 0,
        "ballistic_coefficient": "+.00000142",
        "filename": "tle2004_4of8.txt",
        "calc_eccentricity": 0.7180601,
        "mean_motion": "02.22218699",
        "mean_motion_2": "+00000-0"
      }
    },
    {
      "_index": "tle",
      "_type": "_doc",
      "_id": "rFWRtXYBAz3ao6c9D-6v",
      "_score": 9.150519,
      "_source": {
        "right_ascension": "221.9174",
        "anomaly": "017.0844",
        "calc_anomaly": 17.0844,
        "satellite_number": 10976,
        "calc_mean_motion": 2.22204723,
        "ephemeris": "0",
        "set_number": "094",
        "calc_ballistic_coefficient": 0.00000125,
        "epoch": "03010.99928701",
        "international_designator": "78068B",
        "calc_inclination": 21.0852,
        "perigee": "264.8848",
        "revolution_number": "1990",
        "line_number": 173799,
        "calc_perigee": 264.8848,
        "drag": "+19086-2",
        "text": "1 10976U 78068B   03010.99928701 +.00000125  00000-0  19086-2 0   941\n2 10976  21.0852 221.9174 7197957 264.8848  17.0844  2.22204723 19901",
        "calc_drag": 0.0019086,
        "timestamp": "2003-01-10 23:58:58",
        "inclination": "021.0852",
        "eccentricity": "7197957",
        "classification": "U",
        "calc_right_ascension": 221.9174,
        "calc_mean_motion_2": 0,
        "ballistic_coefficient": "+.00000125",
        "filename": "tle2004_3of8.txt",
        "calc_eccentricity": 0.7197957,
        "mean_motion": "02.22204723",
        "mean_motion_2": "+00000-0"
      }
    }
  ]
}